{"fetched_at":"2026-04-03T05:46:27Z","count":9232,"tles":[{"name":"AQUA","line1":"1 27424U 02022A   26092.30475891  .00001488  00000+0  30631-3 0  9997","line2":"2 27424  98.4215  60.1071 0001307 116.3371 349.5399 14.62033293272183","category":"Other"},{"name":"CZ-2C R/B","line1":"1 28222U 04012C   26092.18886280  .00074917  00000+0  68494-3 0  9994","line2":"2 28222  97.7175 159.7530 0013594 217.1187 142.9134 15.67476463207959","category":"Other"},{"name":"CZ-4B R/B","line1":"1 28415U 04035C   26092.33416415  .00011245  00000+0  39052-3 0  9992","line2":"2 28415  97.3455 126.2948 0030189 242.9987 116.8171 15.29486524183529","category":"Other"},{"name":"CZ-4B R/B","line1":"1 27432U 02024C   26092.13031441  .00000060  00000+0  54022-4 0  9994","line2":"2 27432  98.8786 145.4135 0049343 317.3188  96.6752 14.14551841232559","category":"Other"},{"name":"ALOS (DAICHI)","line1":"1 28931U 06002A   26092.32923935  .00002004  00000+0  34334-3 0  9991","line2":"2 28931  98.1256  48.1732 0001012 113.1286 247.0026 14.69885671 76950","category":"Other"},{"name":"SL-16 R/B","line1":"1 28353U 04021B   26092.28718557  .00000367  00000+0  21561-3 0  9993","line2":"2 28353  71.0011 182.9728 0005253 340.3747  19.7172 14.14598090126178","category":"Other"},{"name":"MIDORI II (ADEOS-II)","line1":"1 27597U 02056A   26092.32515424  .00000462  00000+0  19945-3 0  9990","line2":"2 27597  98.7810  50.9722 0000502  21.3905 338.7297 14.29303846213675","category":"Other"},{"name":"H-2A R/B","line1":"1 27601U 02056E   26092.14608432  .00000364  00000+0  14167-3 0  9990","line2":"2 27601  98.3245  51.6245 0071431  91.6485 280.3323 14.33776953217471","category":"Other"},{"name":"CZ-4B R/B","line1":"1 28059U 03049C   26091.97076451  .00000429  00000+0  10970-3 0  9991","line2":"2 28059  98.6895  87.7926 0048523 159.3872 200.9296 14.55041279189988","category":"Other"},{"name":"CZ-2C R/B","line1":"1 28480U 04046B   26092.32574836  .00000241  00000+0  10385-3 0  9999","line2":"2 28480  98.1977   5.8370 0140639  85.0199 276.7021 14.27001228111873","category":"Other"},{"name":"CZ-2D R/B","line1":"1 28738U 05024B   26092.29623543  .00063445  00000+0  71388-3 0  9993","line2":"2 28738  97.3564 108.3444 0001822 300.0803  60.0274 15.62381263143469","category":"Other"},{"name":"ARIANE 5 R/B","line1":"1 28499U 04049H   26092.21126764  .00001286  00000+0  14804-3 0  9993","line2":"2 28499  98.2660 261.5547 0082833 274.9307  84.2454 14.85311686149285","category":"Other"}]}